STARLINK-30930          
1 58385U 23178M   25212.52996295  .00000360  00000+0  24286-4 0  9993
2 58385  53.1608 308.1364 0001197  83.7570 276.3567 15.30182311 95901
STARLINK-30929          
1 58386U 23178N   25212.59219305  .00000268  00000+0  21181-4 0  9999
2 58386  53.1615 308.3227 0001176  86.6622 273.4513 15.30191078 96008
STARLINK-30898          
1 58387U 23178P   25213.49711505 -.00000016  00000+0  11602-4 0  9998
2 58387  53.1605 304.0931 0001103 115.6003 244.5112 15.30186736 96176
STARLINK-30913          
1 58388U 23178Q   25212.96089979 -.00000396  00000+0 -12632-5 0  9990
2 58388  53.1596 306.5645 0000994  95.9093 264.2021 15.30187834 96090
STARLINK-30938          
1 58389U 23178R   25212.96301363 -.00000661  00000+0 -10202-4 0  9990
2 58389  53.1610 306.5761 0001203  93.4721 266.6418 15.30187290 96094
STARLINK-30868          
1 58390U 23178S   25212.56268352 -.00001259  00000+0 -30410-4 0  9995
2 58390  53.1603 308.3472 0001073 104.4917 255.6203 15.30182177 96035
STARLINK-30916          
1 58391U 23178T   25213.22952747 -.00001944  00000+0 -53543-4 0  9991
2 58391  53.1613 305.2942 0001031  94.3845 265.7274 15.30197677 96138
STARLINK-30937          
1 58392U 23178U   25213.25002315  .00179968  00000+0  40481-2 0  9997
2 58392  53.1548 302.9259 0010026 341.7260 206.8803 15.42123979 96169
STARLINK-30939          
1 58393U 23178V   25213.46758747  .00000163  00000+0  17630-4 0  9990
2 58393  53.1609 304.0410 0001252 108.9795 251.1341 15.30191774 96005
STARLINK-30887          
1 58394U 23178W   25213.50344037  .00000159  00000+0  17513-4 0  9994
2 58394  53.1614 304.0861 0001161 102.0801 258.0330 15.30188228 96154
STARLINK-30934          
1 58395U 23178X   25213.48027361 -.00001458  00000+0 -37146-4 0  9999
2 58395  53.1604 304.1927 0001310  98.8340 261.2809 15.30178089 96100
STARLINK-30964          
1 58402U 23180A   25212.95038774  .00000605  00000+0  59820-4 0  9996
2 58402  43.0028 175.1652 0001248 305.7566  54.3160 15.02538457 94396
STARLINK-30844          
1 58403U 23180B   25212.94051939  .00000314  00000+0  38342-4 0  9997
2 58403  43.0030 175.9533 0000787 296.2445  63.8316 15.02534704 94268
STARLINK-30876          
1 58404U 23180C   25213.26958224 -.00000462  00000+0 -19140-4 0  9998
2 58404  43.0029 174.1216 0001580 276.4023  83.6639 15.02532736 94430
STARLINK-30952          
1 58405U 23180D   25213.26624833  .00000422  00000+0  46331-4 0  9991
2 58405  43.0035 174.0987 0001020 294.7600  65.3136 15.02537912 94334
STARLINK-30925          
1 58406U 23180E   25213.32939760  .00000159  00000+0  26813-4 0  9997
2 58406  43.0023 173.7111 0000987 287.7124  72.3610 15.02537676 94344
STARLINK-30954          
1 58407U 23180F   25212.94706328  .00000043  00000+0  18285-4 0  9993
2 58407  43.0021 175.1405 0000974 288.3520  71.7216 15.02534731 94386
