[{"OBJECT_NAME":"STARLINK-30930","OBJECT_ID":"2023-178M","EPOCH":"2025-07-31T12:43:08.798880","MEAN_MOTION":15.30182311,"ECCENTRICITY":0.0001197,"INCLINATION":53.1608,"RA_OF_ASC_NODE":308.1364,"ARG_OF_PERICENTER":83.757,"MEAN_ANOMALY":276.3567,"EPHEMERIS_TYPE":0,"CLASSIFICATION_TYPE":"U","NORAD_CAT_ID":58385,"ELEMENT_SET_NO":999,"REV_AT_EPOCH":9590,"BSTAR":2.4286e-5,"MEAN_MOTION_DOT":3.6e-6,"MEAN_MOTION_DDOT":0},{"OBJECT_NAME":"STARLINK-30929","OBJECT_ID":"2023-178N","EPOCH":"2025-07-31T14:12:45.479520","MEAN_MOTION":15.30191078,"ECCENTRICITY":0.0001176,"INCLINATION":53.1615,"RA_OF_ASC_NODE":308.3227,"ARG_OF_PERICENTER":86.6622,"MEAN_ANOMALY":273.4513,"EPHEMERIS_TYPE":0,"CLASSIFICATION_TYPE":"U","NORAD_CAT_ID":58386,"ELEMENT_SET_NO":999,"REV_AT_EPOCH":9600,"BSTAR":2.1181e-5,"MEAN_MOTION_DOT":2.68e-6,"MEAN_MOTION_DDOT":0},{"OBJECT_NAME":"STARLINK-30898","OBJECT_ID":"2023-178P","EPOCH":"2025-08-01T11:55:50.740320","MEAN_MOTION":15.30186736,"ECCENTRICITY":0.0001103,"INCLINATION":53.1605,"RA_OF_ASC_NODE":304.0931,"ARG_OF_PERICENTER":115.6003,"MEAN_ANOMALY":244.5112,"EPHEMERIS_TYPE":0,"CLASSIFICATION_TYPE":"U","NORAD_CAT_ID":58387,"ELEMENT_SET_NO":999,"REV_AT_EPOCH":9617,"BSTAR":1.1602e-5,"MEAN_MOTION_DOT":-1.6e-7,"MEAN_MOTION_DDOT":0},{"OBJECT_NAME":"STARLINK-30913","OBJECT_ID":"2023-178Q","EPOCH":"2025-07-31T23:03:41.741856","MEAN_MOTION":15.30187834,"ECCENTRICITY":9.94e-5,"INCLINATION":53.1596,"RA_OF_ASC_NODE":306.5645,"ARG_OF_PERICENTER":95.9093,"MEAN_ANOMALY":264.2021,"EPHEMERIS_TYPE":0,"CLASSIFICATION_TYPE":"U","NORAD_CAT_ID":58388,"ELEMENT_SET_NO":999,"REV_AT_EPOCH":9609,"BSTAR":-1.2632e-6,"MEAN_MOTION_DOT":-3.96e-6,"MEAN_MOTION_DDOT":0},{"OBJECT_NAME":"STARLINK-30938","OBJECT_ID":"2023-178R","EPOCH":"2025-07-31T23:06:44.377632","MEAN_MOTION":15.3018729,"ECCENTRICITY":0.0001203,"INCLINATION":53.161,"RA_OF_ASC_NODE":306.5761,"ARG_OF_PERICENTER":93.4721,"MEAN_ANOMALY":266.6418,"EPHEMERIS_TYPE":0,"CLASSIFICATION_TYPE":"U","NORAD_CAT_ID":58389,"ELEMENT_SET_NO":999,"REV_AT_EPOCH":9609,"BSTAR":-1.0202e-5,"MEAN_MOTION_DOT":-6.61e-6,"MEAN_MOTION_DDOT":0},{"OBJECT_NAME":"STARLINK-30868","OBJECT_ID":"2023-178S","EPOCH":"2025-07-31T13:30:15.856128","MEAN_MOTION":15.30182177,"ECCENTRICITY":0.0001073,"INCLINATION":53.1603,"RA_OF_ASC_NODE":308.3472,"ARG_OF_PERICENTER":104.4917,"MEAN_ANOMALY":255.6203,"EPHEMERIS_TYPE":0,"CLASSIFICATION_TYPE":"U","NORAD_CAT_ID":58390,"ELEMENT_SET_NO":999,"REV_AT_EPOCH":9603,"BSTAR":-3.041e-5,"MEAN_MOTION_DOT":-1.259e-5,"MEAN_MOTION_DDOT":0},{"OBJECT_NAME":"STARLINK-30916","OBJECT_ID":"2023-178T","EPOCH":"2025-08-01T05:30:31.173408","MEAN_MOTION":15.30197677,"ECCENTRICITY":0.0001031,"INCLINATION":53.1613,"RA_OF_ASC_NODE":305.2942,"ARG_OF_PERICENTER":94.3845,"MEAN_ANOMALY":265.7274,"EPHEMERIS_TYPE":0,"CLASSIFICATION_TYPE":"U","NORAD_CAT_ID":58391,"ELEMENT_SET_NO":999,"REV_AT_EPOCH":9613,"BSTAR":-5.3543e-5,"MEAN_MOTION_DOT":-1.944e-5,"MEAN_MOTION_DDOT":0},{"OBJECT_NAME":"STARLINK-30937","OBJECT_ID":"2023-178U","EPOCH":"2025-08-01T06:00:02.000160","MEAN_MOTION":15.42123979,"ECCENTRICITY":0.0010026,"INCLINATION":53.1548,"RA_OF_ASC_NODE":302.9259,"ARG_OF_PERICENTER":341.726,"MEAN_ANOMALY":206.8803,"EPHEMERIS_TYPE":0,"CLASSIFICATION_TYPE":"U","NORAD_CAT_ID":58392,"ELEMENT_SET_NO":999,"REV_AT_EPOCH":9616,"BSTAR":0.0040481,"MEAN_MOTION_DOT":0.00179968,"MEAN_MOTION_DDOT":0},{"OBJECT_NAME":"STARLINK-30939","OBJECT_ID":"2023-178V","EPOCH":"2025-08-01T11:13:19.557408","MEAN_MOTION":15.30191774,"ECCENTRICITY":0.0001252,"INCLINATION":53.1609,"RA_OF_ASC_NODE":304.041,"ARG_OF_PERICENTER":108.9795,"MEAN_ANOMALY":251.1341,"EPHEMERIS_TYPE":0,"CLASSIFICATION_TYPE":"U","NORAD_CAT_ID":58393,"ELEMENT_SET_NO":999,"REV_AT_EPOCH":9600,"BSTAR":1.763e-5,"MEAN_MOTION_DOT":1.63e-6,"MEAN_MOTION_DDOT":0},{"OBJECT_NAME":"STARLINK-30887","OBJECT_ID":"2023-178W","EPOCH":"2025-08-01T12:04:57.247968","MEAN_MOTION":15.30188228,"ECCENTRICITY":0.0001161,"INCLINATION":53.1614,"RA_OF_ASC_NODE":304.0861,"ARG_OF_PERICENTER":102.0801,"MEAN_ANOMALY":258.033,"EPHEMERIS_TYPE":0,"CLASSIFICATION_TYPE":"U","NORAD_CAT_ID":58394,"ELEMENT_SET_NO":999,"REV_AT_EPOCH":9615,"BSTAR":1.7513e-5,"MEAN_MOTION_DOT":1.59e-6,"MEAN_MOTION_DDOT":0},{"OBJECT_NAME":"STARLINK-30934","OBJECT_ID":"2023-178X","EPOCH":"2025-08-01T11:31:35.639904","MEAN_MOTION":15.30178089,"ECCENTRICITY":0.000131,"INCLINATION":53.1604,"RA_OF_ASC_NODE":304.1927,"ARG_OF_PERICENTER":98.834,"MEAN_ANOMALY":261.2809,"EPHEMERIS_TYPE":0,"CLASSIFICATION_TYPE":"U","NORAD_CAT_ID":58395,"ELEMENT_SET_NO":999,"REV_AT_EPOCH":9610,"BSTAR":-3.7146e-5,"MEAN_MOTION_DOT":-1.458e-5,"MEAN_MOTION_DDOT":0},{"OBJECT_NAME":"STARLINK-30964","OBJECT_ID":"2023-180A","EPOCH":"2025-07-31T22:48:33.500736","MEAN_MOTION":15.02538457,"ECCENTRICITY":0.0001248,"INCLINATION":43.0028,"RA_OF_ASC_NODE":175.1652,"ARG_OF_PERICENTER":305.7566,"MEAN_ANOMALY":54.316,"EPHEMERIS_TYPE":0,"CLASSIFICATION_TYPE":"U","NORAD_CAT_ID":58402,"ELEMENT_SET_NO":999,"REV_AT_EPOCH":9439,"BSTAR":5.982e-5,"MEAN_MOTION_DOT":6.05e-6,"MEAN_MOTION_DDOT":0},{"OBJECT_NAME":"STARLINK-30844","OBJECT_ID":"2023-180B","EPOCH":"2025-07-31T22:34:20.875296","MEAN_MOTION":15.02534704,"ECCENTRICITY":7.87e-5,"INCLINATION":43.003,"RA_OF_ASC_NODE":175.9533,"ARG_OF_PERICENTER":296.2445,"MEAN_ANOMALY":63.8316,"EPHEMERIS_TYPE":0,"CLASSIFICATION_TYPE":"U","NORAD_CAT_ID":58403,"ELEMENT_SET_NO":999,"REV_AT_EPOCH":9426,"BSTAR":3.8342e-5,"MEAN_MOTION_DOT":3.14e-6,"MEAN_MOTION_DDOT":0},{"OBJECT_NAME":"STARLINK-30876","OBJECT_ID":"2023-180C","EPOCH":"2025-08-01T06:28:11.905536","MEAN_MOTION":15.02532736,"ECCENTRICITY":0.000158,"INCLINATION":43.0029,"RA_OF_ASC_NODE":174.1216,"ARG_OF_PERICENTER":276.4023,"MEAN_ANOMALY":83.6639,"EPHEMERIS_TYPE":0,"CLASSIFICATION_TYPE":"U","NORAD_CAT_ID":58404,"ELEMENT_SET_NO":999,"REV_AT_EPOCH":9443,"BSTAR":-1.914e-5,"MEAN_MOTION_DOT":-4.62e-6,"MEAN_MOTION_DDOT":0},{"OBJECT_NAME":"STARLINK-30952","OBJECT_ID":"2023-180D","EPOCH":"2025-08-01T06:23:23.855712","MEAN_MOTION":15.02537912,"ECCENTRICITY":0.000102,"INCLINATION":43.0035,"RA_OF_ASC_NODE":174.0987,"ARG_OF_PERICENTER":294.76,"MEAN_ANOMALY":65.3136,"EPHEMERIS_TYPE":0,"CLASSIFICATION_TYPE":"U","NORAD_CAT_ID":58405,"ELEMENT_SET_NO":999,"REV_AT_EPOCH":9433,"BSTAR":4.6331e-5,"MEAN_MOTION_DOT":4.22e-6,"MEAN_MOTION_DDOT":0},{"OBJECT_NAME":"STARLINK-30925","OBJECT_ID":"2023-180E","EPOCH":"2025-08-01T07:54:19.952640","MEAN_MOTION":15.02537676,"ECCENTRICITY":9.87e-5,"INCLINATION":43.0023,"RA_OF_ASC_NODE":173.7111,"ARG_OF_PERICENTER":287.7124,"MEAN_ANOMALY":72.361,"EPHEMERIS_TYPE":0,"CLASSIFICATION_TYPE":"U","NORAD_CAT_ID":58406,"ELEMENT_SET_NO":999,"REV_AT_EPOCH":9434,"BSTAR":2.6813e-5,"MEAN_MOTION_DOT":1.59e-6,"MEAN_MOTION_DDOT":0},{"OBJECT_NAME":"STARLINK-30954","OBJECT_ID":"2023-180F","EPOCH":"2025-07-31T22:43:46.267392","MEAN_MOTION":15.02534731,"ECCENTRICITY":9.74e-5,"INCLINATION":43.0021,"RA_OF_ASC_NODE":175.1405,"ARG_OF_PERICENTER":288.352,"MEAN_ANOMALY":71.7216,"EPHEMERIS_TYPE":0,"CLASSIFICATION_TYPE":"U","NORAD_CAT_ID":58407,"ELEMENT_SET_NO":999,"REV_AT_EPOCH":9438,"BSTAR":1.8285e-5,"MEAN_MOTION_DOT":4.3e-7,"MEAN_MOTION_DDOT":0}]
